{
    "links": {
        "self": "http://www.neowsapp.com/rest/v1/neo/3263336?api_key=iIulBulltgU6a56xZRHN4H3l9WmuAYTsLGpBGhQ2"
    },
    "id": "3263336",
    "neo_reference_id": "3263336",
    "name": "(2004 XL4)",
    "designation": "2004 XL4",
    "nasa_jpl_url": "http://ssd.jpl.nasa.gov/sbdb.cgi?sstr=3263336",
    "absolute_magnitude_h": 20.9,
    "estimated_diameter": {
        "kilometers": {
            "estimated_diameter_min": 0.1756123185,
            "estimated_diameter_max": 0.3926810818
        },
        "meters": {
            "estimated_diameter_min": 175.6123184804,
            "estimated_diameter_max": 392.6810818086
        },
        "miles": {
            "estimated_diameter_min": 0.1091204019,
            "estimated_diameter_max": 0.2440006365
        },
        "feet": {
            "estimated_diameter_min": 576.1559189633,
            "estimated_diameter_max": 1288.3238004408
        }
    },
    "is_potentially_hazardous_asteroid": false,
    "close_approach_data": [
        {
            "close_approach_date": "2004-11-18",
            "close_approach_date_full": "2004-Nov-18 04:27",
            "epoch_date_close_approach": 1100752020000,
            "relative_velocity": {
                "kilometers_per_second": "9.1018492509",
                "kilometers_per_hour": "32766.6573032079",
                "miles_per_hour": "20359.9265893183"
            },
            "miss_distance": {
                "astronomical": "0.2379473347",
                "lunar": "92.5615131983",
                "kilometers": "35596414.443297089",
                "miles": "22118586.2825902682"
            },
            "orbiting_body": "Earth"
        },
        {
            "close_approach_date": "2027-11-17",
            "close_approach_date_full": "2027-Nov-17 00:10",
            "epoch_date_close_approach": 1826410200000,
            "relative_velocity": {
                "kilometers_per_second": "9.3164990163",
                "kilometers_per_hour": "33539.3964586083",
                "miles_per_hour": "20840.0766495169"
            },
            "miss_distance": {
                "astronomical": "0.2103320336",
                "lunar": "81.8191610704",
                "kilometers": "31465224.219328432",
                "miles": "19551583.7109070816"
            },
            "orbiting_body": "Earth"
        }
    ],
    "orbital_data": {
        "orbit_id": "12",
        "orbit_determination_date": "2017-04-06 09:11:48",
        "first_observation_date": "2004-12-07",
        "last_observation_date": "2005-01-15",
        "data_arc_in_days": 39,
        "observations_used": 45,
        "orbit_uncertainty": "7",
        "minimum_orbit_intersection": ".209974",
        "jupiter_tisserand_invariant": "3.852",
        "epoch_osculation": "2459000.5",
        "eccentricity": ".3631516526233518",
        "semi_major_axis": "1.870377545524488",
        "inclination": "16.77676743606361",
        "ascending_node_longitude": "241.2338608119175",
        "orbital_period": "934.3129036855494",
        "perihelion_distance": "1.191146848837662",
        "perihelion_argument": "164.4031042248508",
        "aphelion_distance": "2.549608242211314",
        "perihelion_time": "2458915.743917645036",
        "mean_anomaly": "32.65735657446958",
        "mean_motion": ".3853098877045595",
        "equinox": "J2000",
        "orbit_class": {
            "orbit_class_type": "AMO",
            "orbit_class_description": "Near-Earth asteroid orbits similar to that of 1221 Amor",
            "orbit_class_range": "1.017 AU < q (perihelion) < 1.3 AU"
        }
    },
    "is_sentry_object": false
}